[Satellite]
VERSION=1.1
NAME=FLOCK 2K-35
NICKNAME=FLOCK 2K-35
TLE1=1 42877U 17042BE  18020.86361349  .00006809  00000-0  20002-3 0  9993
TLE2=2 42877  96.9937 284.9456 0010576 276.6912  83.3129 15.35376207 29021
